{
  "type": "FeatureCollection",
  "features": [
    {
      "type": "Feature",
      "properties": {
        "norad_id": 31072,
        "name": "FENGYUN 1C DEB",
        "group": "fengyun-1c-debris",
        "lat": 58.66122528388719,
        "lon": -8.57409968215278,
        "alt_km": 650.0275130542022,
        "timestamp": "2025-12-26T19:22:39.187197+00:00",
        "meta_object_name": "FENGYUN 1C DEB",
        "meta_object_id": "1999-025BFS",
        "meta_epoch": "2025-12-25T22:53:35.674368",
        "meta_mean_motion": 14.25530356,
        "meta_eccentricity": 0.0210218,
        "meta_inclination": 99.3336,
        "meta_ra_of_asc_node": 6.1866,
        "meta_arg_of_pericenter": 60.1537,
        "meta_mean_anomaly": 302.0353,
        "meta_ephemeris_type": 0,
        "meta_classification_type": "U",
        "meta_norad_cat_id": 31072,
        "meta_element_set_no": 999,
        "meta_rev_at_epoch": 96831,
        "meta_bstar": 0.00069077,
        "meta_mean_motion_dot": 2.007e-05,
        "meta_mean_motion_ddot": 0,
        "tle_line1": "1 31072U 99025BFS 25359.95388512  .00002007  00000+0  69077-3 0  9993",
        "tle_line2": "2 31072  99.3336   6.1866 0210218  60.1537 302.0353 14.25530356968318"
      },
      "geometry": {
        "type": "Point",
        "coordinates": [
          -8.57409968215278,
          58.66122528388719
        ]
      }
    },
    {
      "type": "Feature",
      "properties": {
        "norad_id": 31073,
        "name": "FENGYUN 1C DEB",
        "group": "fengyun-1c-debris",
        "lat": 20.02199104013946,
        "lon": -152.18913733044758,
        "alt_km": 831.5181800032778,
        "timestamp": "2025-12-26T19:22:39.187207+00:00",
        "meta_object_name": "FENGYUN 1C DEB",
        "meta_object_id": "1999-025BFT",
        "meta_epoch": "2025-12-26T07:29:05.668224",
        "meta_mean_motion": 14.24861925,
        "meta_eccentricity": 0.00447841,
        "meta_inclination": 99.2199,
        "meta_ra_of_asc_node": 210.684,
        "meta_arg_of_pericenter": 247.0822,
        "meta_mean_anomaly": 112.5626,
        "meta_ephemeris_type": 0,
        "meta_classification_type": "U",
        "meta_norad_cat_id": 31073,
        "meta_element_set_no": 999,
        "meta_rev_at_epoch": 97276,
        "meta_bstar": 0.001068464,
        "meta_mean_motion_dot": 2.472e-05,
        "meta_mean_motion_ddot": 0,
        "tle_line1": "1 31073U 99025BFT 25360.31187116  .00002472  00000+0  10685-2 0  9999",
        "tle_line2": "2 31073  99.2199 210.6840 0044784 247.0822 112.5626 14.24861925972764"
      },
      "geometry": {
        "type": "Point",
        "coordinates": [
          -152.18913733044758,
          20.02199104013946
        ]
      }
    },
    {
      "type": "Feature",
      "properties": {
        "norad_id": 31074,
        "name": "FENGYUN 1C DEB",
        "group": "fengyun-1c-debris",
        "lat": 43.62052817285789,
        "lon": 104.49288143373116,
        "alt_km": 840.4557565323548,
        "timestamp": "2025-12-26T19:22:39.187217+00:00",
        "meta_object_name": "FENGYUN 1C DEB",
        "meta_object_id": "1999-025BFU",
        "meta_epoch": "2025-12-25T17:15:45.123264",
        "meta_mean_motion": 14.14335151,
        "meta_eccentricity": 0.00863428,
        "meta_inclination": 98.9581,
        "meta_ra_of_asc_node": 274.7566,
        "meta_arg_of_pericenter": 228.8488,
        "meta_mean_anomaly": 130.5212,
        "meta_ephemeris_type": 0,
        "meta_classification_type": "U",
        "meta_norad_cat_id": 31074,
        "meta_element_set_no": 999,
        "meta_rev_at_epoch": 95763,
        "meta_bstar": 0.0019375596,
        "meta_mean_motion_dot": 3.795e-05,
        "meta_mean_motion_ddot": 0,
        "tle_line1": "1 31074U 99025BFU 25359.71927226  .00003795  00000+0  19376-2 0  9991",
        "tle_line2": "2 31074  98.9581 274.7566 0086342 228.8488 130.5212 14.14335151957639"
      },
      "geometry": {
        "type": "Point",
        "coordinates": [
          104.49288143373116,
          43.62052817285789
        ]
      }
    },
    {
      "type": "Feature",
      "properties": {
        "norad_id": 31078,
        "name": "FENGYUN 1C DEB",
        "group": "fengyun-1c-debris",
        "lat": 35.93138821019579,
        "lon": -112.18356923644727,
        "alt_km": 746.0620472097062,
        "timestamp": "2025-12-26T19:22:39.187228+00:00",
        "meta_object_name": "FENGYUN 1C DEB",
        "meta_object_id": "1999-025BFY",
        "meta_epoch": "2025-12-25T10:41:17.935008",
        "meta_mean_motion": 14.22107607,
        "meta_eccentricity": 0.0117309,
        "meta_inclination": 98.8648,
        "meta_ra_of_asc_node": 59.9531,
        "meta_arg_of_pericenter": 112.5662,
        "meta_mean_anomaly": 260.9164,
        "meta_ephemeris_type": 0,
        "meta_classification_type": "U",
        "meta_norad_cat_id": 31078,
        "meta_element_set_no": 999,
        "meta_rev_at_epoch": 97073,
        "meta_bstar": 0.00051406,
        "meta_mean_motion_dot": 1.177e-05,
        "meta_mean_motion_ddot": 0,
        "tle_line1": "1 31078U 99025BFY 25359.44534647  .00001177  00000+0  51406-3 0  9999",
        "tle_line2": "2 31078  98.8648  59.9531 0117309 112.5662 260.9164 14.22107607970734"
      },
      "geometry": {
        "type": "Point",
        "coordinates": [
          -112.18356923644727,
          35.93138821019579
        ]
      }
    },
    {
      "type": "Feature",
      "properties": {
        "norad_id": 31081,
        "name": "FENGYUN 1C DEB",
        "group": "fengyun-1c-debris",
        "lat": -18.419577610630657,
        "lon": -166.14369067110104,
        "alt_km": 842.6344331682985,
        "timestamp": "2025-12-26T19:22:39.187239+00:00",
        "meta_object_name": "FENGYUN 1C DEB",
        "meta_object_id": "1999-025BGB",
        "meta_epoch": "2025-12-23T07:05:52.274688",
        "meta_mean_motion": 14.06299048,
        "meta_eccentricity": 0.00478119,
        "meta_inclination": 98.7696,
        "meta_ra_of_asc_node": 13.4015,
        "meta_arg_of_pericenter": 200.9733,
        "meta_mean_anomaly": 228.9859,
        "meta_ephemeris_type": 0,
        "meta_classification_type": "U",
        "meta_norad_cat_id": 31081,
        "meta_element_set_no": 999,
        "meta_rev_at_epoch": 96609,
        "meta_bstar": 5.9046128e-05,
        "meta_mean_motion_dot": 5.6e-07,
        "meta_mean_motion_ddot": 0,
        "tle_line1": "1 31081U 99025BGB 25357.29574392  .00000056  00000+0  59046-4 0  9999",
        "tle_line2": "2 31081  98.7696  13.4015 0047811 200.9733 228.9859 14.06299048966095"
      },
      "geometry": {
        "type": "Point",
        "coordinates": [
          -166.14369067110104,
          -18.419577610630657
        ]
      }
    },
    {
      "type": "Feature",
      "properties": {
        "norad_id": 31083,
        "name": "FENGYUN 1C DEB",
        "group": "fengyun-1c-debris",
        "lat": -15.548845336738804,
        "lon": -63.52127726998715,
        "alt_km": 681.0514534035456,
        "timestamp": "2025-12-26T19:22:39.187249+00:00",
        "meta_object_name": "FENGYUN 1C DEB",
        "meta_object_id": "1999-025BGD",
        "meta_epoch": "2025-12-26T07:07:20.421696",
        "meta_mean_motion": 14.62377083,
        "meta_eccentricity": 0.00323186,
        "meta_inclination": 98.6459,
        "meta_ra_of_asc_node": 118.3709,
        "meta_arg_of_pericenter": 263.6875,
        "meta_mean_anomaly": 125.5688,
        "meta_ephemeris_type": 0,
        "meta_classification_type": "U",
        "meta_norad_cat_id": 31083,
        "meta_element_set_no": 999,
        "meta_rev_at_epoch": 97908,
        "meta_bstar": 0.0028305497,
        "meta_mean_motion_dot": 0.00014391,
        "meta_mean_motion_ddot": 0,
        "tle_line1": "1 31083U 99025BGD 25360.29676414  .00014391  00000+0  28305-2 0  9992",
        "tle_line2": "2 31083  98.6459 118.3709 0032318 263.6875 125.5688 14.62377083979080"
      },
      "geometry": {
        "type": "Point",
        "coordinates": [
          -63.52127726998715,
          -15.548845336738804
        ]
      }
    },
    {
      "type": "Feature",
      "properties": {
        "norad_id": 31085,
        "name": "FENGYUN 1C DEB",
        "group": "fengyun-1c-debris",
        "lat": 32.15227713273107,
        "lon": 27.75863974163683,
        "alt_km": 850.0747163464866,
        "timestamp": "2025-12-26T19:22:39.187259+00:00",
        "meta_object_name": "FENGYUN 1C DEB",
        "meta_object_id": "1999-025BGF",
        "meta_epoch": "2025-12-23T07:34:38.019648",
        "meta_mean_motion": 14.30315184,
        "meta_eccentricity": 0.00868652,
        "meta_inclination": 98.9838,
        "meta_ra_of_asc_node": 198.4478,
        "meta_arg_of_pericenter": 347.3794,
        "meta_mean_anomaly": 190.7566,
        "meta_ephemeris_type": 0,
        "meta_classification_type": "U",
        "meta_norad_cat_id": 31085,
        "meta_element_set_no": 999,
        "meta_rev_at_epoch": 97867,
        "meta_bstar": 9.7983281e-05,
        "meta_mean_motion_dot": 2.17e-06,
        "meta_mean_motion_ddot": 0,
        "tle_line1": "1 31085U 99025BGF 25357.31571782  .00000217  00000+0  97983-4 0  9997",
        "tle_line2": "2 31085  98.9838 198.4478 0086865 347.3794 190.7566 14.30315184978676"
      },
      "geometry": {
        "type": "Point",
        "coordinates": [
          27.75863974163683,
          32.15227713273107
        ]
      }
    }
  ]
}